{
  "type": "FeatureCollection",
  "features": [
    {
      "type": "Feature",
      "properties": {
        "norad_id": 35616,
        "name": "IRIDIUM 33 DEB",
        "group": "iridium-33-debris",
        "lat": -31.71928517144907,
        "lon": 163.57565242168783,
        "alt_km": 627.7624657651486,
        "timestamp": "2025-12-22T11:33:20.825102+00:00",
        "meta_object_name": "IRIDIUM 33 DEB",
        "meta_object_id": "1997-051QN",
        "meta_epoch": "2025-12-21T16:46:45.287328",
        "meta_mean_motion": 14.82015021,
        "meta_eccentricity": 0.0011409,
        "meta_inclination": 86.3545,
        "meta_ra_of_asc_node": 341.6744,
        "meta_arg_of_pericenter": 134.0095,
        "meta_mean_anomaly": 226.2069,
        "meta_ephemeris_type": 0,
        "meta_classification_type": "U",
        "meta_norad_cat_id": 35616,
        "meta_element_set_no": 999,
        "meta_rev_at_epoch": 87707,
        "meta_bstar": 0.0013755,
        "meta_mean_motion_dot": 0.00010957,
        "meta_mean_motion_ddot": 0,
        "tle_line1": "1 35616U 97051QN  25355.69913527  .00010957  00000+0  13755-2 0  9999",
        "tle_line2": "2 35616  86.3545 341.6744 0011409 134.0095 226.2069 14.82015021877070"
      },
      "geometry": {
        "type": "Point",
        "coordinates": [
          163.57565242168783,
          -31.71928517144907
        ]
      }
    },
    {
      "type": "Feature",
      "properties": {
        "norad_id": 35618,
        "name": "IRIDIUM 33 DEB",
        "group": "iridium-33-debris",
        "lat": 20.330957778964574,
        "lon": -9.395693213684714,
        "alt_km": 700.9477039383983,
        "timestamp": "2025-12-22T11:33:20.825116+00:00",
        "meta_object_name": "IRIDIUM 33 DEB",
        "meta_object_id": "1997-051QQ",
        "meta_epoch": "2025-12-21T17:16:24.492288",
        "meta_mean_motion": 14.52331103,
        "meta_eccentricity": 0.0028415,
        "meta_inclination": 86.341,
        "meta_ra_of_asc_node": 349.5786,
        "meta_arg_of_pericenter": 351.4344,
        "meta_mean_anomaly": 8.6373,
        "meta_ephemeris_type": 0,
        "meta_classification_type": "U",
        "meta_norad_cat_id": 35618,
        "meta_element_set_no": 999,
        "meta_rev_at_epoch": 65524,
        "meta_bstar": 0.0003905,
        "meta_mean_motion_dot": 1.617e-05,
        "meta_mean_motion_ddot": 0,
        "tle_line1": "1 35618U 97051QQ  25355.71972792  .00001617  00000+0  39050-3 0  9993",
        "tle_line2": "2 35618  86.3410 349.5786 0028415 351.4344   8.6373 14.52331103655245"
      },
      "geometry": {
        "type": "Point",
        "coordinates": [
          -9.395693213684714,
          20.330957778964574
        ]
      }
    },
    {
      "type": "Feature",
      "properties": {
        "norad_id": 35620,
        "name": "IRIDIUM 33 DEB",
        "group": "iridium-33-debris",
        "lat": -48.998643293846115,
        "lon": 37.509041769672166,
        "alt_km": 671.3582595081789,
        "timestamp": "2025-12-22T11:33:20.825135+00:00",
        "meta_object_name": "IRIDIUM 33 DEB",
        "meta_object_id": "1997-051QS",
        "meta_epoch": "2025-12-18T07:58:30.597312",
        "meta_mean_motion": 14.38231155,
        "meta_eccentricity": 0.01396071,
        "meta_inclination": 86.3909,
        "meta_ra_of_asc_node": 215.0948,
        "meta_arg_of_pericenter": 240.37,
        "meta_mean_anomaly": 118.3533,
        "meta_ephemeris_type": 0,
        "meta_classification_type": "U",
        "meta_norad_cat_id": 35620,
        "meta_element_set_no": 999,
        "meta_rev_at_epoch": 60046,
        "meta_bstar": 0.0042608437,
        "meta_mean_motion_dot": 0.00014532,
        "meta_mean_motion_ddot": 0,
        "tle_line1": "1 35620U 97051QS  25352.33229858  .00014532  00000+0  42608-2 0  9991",
        "tle_line2": "2 35620  86.3909 215.0948 0139607 240.3700 118.3533 14.38231155600467"
      },
      "geometry": {
        "type": "Point",
        "coordinates": [
          37.509041769672166,
          -48.998643293846115
        ]
      }
    },
    {
      "type": "Feature",
      "properties": {
        "norad_id": 35622,
        "name": "IRIDIUM 33 DEB",
        "group": "iridium-33-debris",
        "lat": 38.546794903648085,
        "lon": 75.76592878674724,
        "alt_km": 549.1009993282523,
        "timestamp": "2025-12-22T11:33:20.825148+00:00",
        "meta_object_name": "IRIDIUM 33 DEB",
        "meta_object_id": "1997-051QU",
        "meta_epoch": "2025-12-21T17:30:45.499392",
        "meta_mean_motion": 15.05595388,
        "meta_eccentricity": 0.0003879,
        "meta_inclination": 86.2019,
        "meta_ra_of_asc_node": 259.171,
        "meta_arg_of_pericenter": 296.3658,
        "meta_mean_anomaly": 92.7099,
        "meta_ephemeris_type": 0,
        "meta_classification_type": "U",
        "meta_norad_cat_id": 35622,
        "meta_element_set_no": 999,
        "meta_rev_at_epoch": 87495,
        "meta_bstar": 0.0033234,
        "meta_mean_motion_dot": 0.00048189,
        "meta_mean_motion_ddot": 0,
        "tle_line1": "1 35622U 97051QU  25355.72969328  .00048189  00000+0  33234-2 0  9992",
        "tle_line2": "2 35622  86.2019 259.1710 0003879 296.3658  92.7099 15.05595388874955"
      },
      "geometry": {
        "type": "Point",
        "coordinates": [
          75.76592878674724,
          38.546794903648085
        ]
      }
    },
    {
      "type": "Feature",
      "properties": {
        "norad_id": 35628,
        "name": "IRIDIUM 33 DEB",
        "group": "iridium-33-debris",
        "lat": 84.19702646310968,
        "lon": 145.8985810477991,
        "alt_km": 666.7257951537849,
        "timestamp": "2025-12-22T11:33:20.825158+00:00",
        "meta_object_name": "IRIDIUM 33 DEB",
        "meta_object_id": "1997-051RA",
        "meta_epoch": "2025-12-20T06:45:55.793664",
        "meta_mean_motion": 14.67680924,
        "meta_eccentricity": 0.00096368,
        "meta_inclination": 86.3562,
        "meta_ra_of_asc_node": 5.7112,
        "meta_arg_of_pericenter": 314.2717,
        "meta_mean_anomaly": 45.7705,
        "meta_ephemeris_type": 0,
        "meta_classification_type": "U",
        "meta_norad_cat_id": 35628,
        "meta_element_set_no": 999,
        "meta_rev_at_epoch": 86557,
        "meta_bstar": 0.00085133469,
        "meta_mean_motion_dot": 4.868e-05,
        "meta_mean_motion_ddot": 0,
        "tle_line1": "1 35628U 97051RA  25354.28189576  .00004868  00000+0  85133-3 0  9999",
        "tle_line2": "2 35628  86.3562   5.7112 0009636 314.2717  45.7705 14.67680924865577"
      },
      "geometry": {
        "type": "Point",
        "coordinates": [
          145.8985810477991,
          84.19702646310968
        ]
      }
    },
    {
      "type": "Feature",
      "properties": {
        "norad_id": 35631,
        "name": "IRIDIUM 33 DEB",
        "group": "iridium-33-debris",
        "lat": -1.5571518653252725,
        "lon": 16.68146427171629,
        "alt_km": 737.6303113764134,
        "timestamp": "2025-12-22T11:33:20.825169+00:00",
        "meta_object_name": "IRIDIUM 33 DEB",
        "meta_object_id": "1997-051RD",
        "meta_epoch": "2025-12-21T13:02:16.005120",
        "meta_mean_motion": 14.47332773,
        "meta_eccentricity": 0.00192,
        "meta_inclination": 86.3662,
        "meta_ra_of_asc_node": 17.1844,
        "meta_arg_of_pericenter": 91.7659,
        "meta_mean_anomaly": 61.4804,
        "meta_ephemeris_type": 0,
        "meta_classification_type": "U",
        "meta_norad_cat_id": 35631,
        "meta_element_set_no": 999,
        "meta_rev_at_epoch": 87324,
        "meta_bstar": 0.00027951,
        "meta_mean_motion_dot": 1.046e-05,
        "meta_mean_motion_ddot": 0,
        "tle_line1": "1 35631U 97051RD  25355.54324080  .00001046  00000+0  27951-3 0  9993",
        "tle_line2": "2 35631  86.3662  17.1844 0019200  91.7659  61.4804 14.47332773873243"
      },
      "geometry": {
        "type": "Point",
        "coordinates": [
          16.68146427171629,
          -1.5571518653252725
        ]
      }
    },
    {
      "type": "Feature",
      "properties": {
        "norad_id": 35680,
        "name": "IRIDIUM 33 DEB",
        "group": "iridium-33-debris",
        "lat": 53.47927224702574,
        "lon": -168.07224091129817,
        "alt_km": 871.5253531635317,
        "timestamp": "2025-12-22T11:33:20.825179+00:00",
        "meta_object_name": "IRIDIUM 33 DEB",
        "meta_object_id": "1997-051RJ",
        "meta_epoch": "2025-12-21T07:58:47.283744",
        "meta_mean_motion": 14.2104558,
        "meta_eccentricity": 0.0150556,
        "meta_inclination": 86.1025,
        "meta_ra_of_asc_node": 17.7185,
        "meta_arg_of_pericenter": 250.9856,
        "meta_mean_anomaly": 122.3959,
        "meta_ephemeris_type": 0,
        "meta_classification_type": "U",
        "meta_norad_cat_id": 35680,
        "meta_element_set_no": 999,
        "meta_rev_at_epoch": 60823,
        "meta_bstar": 0.0026505,
        "meta_mean_motion_dot": 6.465e-05,
        "meta_mean_motion_ddot": 0,
        "tle_line1": "1 35680U 97051RJ  25355.33249171  .00006465  00000+0  26505-2 0  9994",
        "tle_line2": "2 35680  86.1025  17.7185 0150556 250.9856 122.3959 14.21045580608232"
      },
      "geometry": {
        "type": "Point",
        "coordinates": [
          -168.07224091129817,
          53.47927224702574
        ]
      }
    }
  ]
}